[{"OBJECT_NAME":"STARLINK-4726","OBJECT_ID":"2022-111AF","EPOCH":"2026-03-09T20:35:08.069856","MEAN_MOTION":15.088405,"ECCENTRICITY":0.00012488,"INCLINATION":53.2167,"RA_OF_ASC_NODE":263.2327,"ARG_OF_PERICENTER":88.4404,"MEAN_ANOMALY":271.6731,"EPHEMERIS_TYPE":0,"CLASSIFICATION_TYPE":"U","NORAD_CAT_ID":53802,"ELEMENT_SET_NO":999,"REV_AT_EPOCH":19384,"BSTAR":5.8338932e-5,"MEAN_MOTION_DOT":6.41e-6,"MEAN_MOTION_DDOT":0},{"OBJECT_NAME":"CZ-4B DEB","OBJECT_ID":"2006-046E","EPOCH":"2026-03-09T15:05:34.126944","MEAN_MOTION":15.05038248,"ECCENTRICITY":0.0035443,"INCLINATION":97.6504,"RA_OF_ASC_NODE":126.4986,"ARG_OF_PERICENTER":210.976,"MEAN_ANOMALY":148.9377,"EPHEMERIS_TYPE":0,"CLASSIFICATION_TYPE":"U","NORAD_CAT_ID":29509,"ELEMENT_SET_NO":999,"REV_AT_EPOCH":5351,"BSTAR":0.00027248,"MEAN_MOTION_DOT":3.86e-5,"MEAN_MOTION_DDOT":0}]
